STARLINK-1974
1 27629C 21012K   21325.12805245 -.01049902  00000-0 -17673-1 0  3259
2 27629  53.0521 160.7626 0001232  54.1885 255.4796 15.52162996    18
